{
    "CCSDS_OMM_VERS": "3.0",
    "COMMENT": "GENERATED VIA SPACE-TRACK.ORG API",
    "CREATION_DATE": "2025-05-21T22:56:20",
    "ORIGINATOR": "18 SPCS",
    "OBJECT_NAME": "NAVSTAR 79 (USA 304)",
    "OBJECT_ID": "2020-041A",
    "CENTER_NAME": "EARTH",
    "REF_FRAME": "TEME",
    "TIME_SYSTEM": "UTC",
    "MEAN_ELEMENT_THEORY": "SGP4",
    "EPOCH": "2025-05-21T14:27:14.677344",
    "MEAN_MOTION": "2.00566958",
    "ECCENTRICITY": "0.00525320",
    "INCLINATION": "56.3965",
    "RA_OF_ASC_NODE": "44.1771",
    "ARG_OF_PERICENTER": "199.2501",
    "MEAN_ANOMALY": "345.9054",
    "EPHEMERIS_TYPE": "0",
    "CLASSIFICATION_TYPE": "U",
    "NORAD_CAT_ID": "45854",
    "ELEMENT_SET_NO": "999",
    "REV_AT_EPOCH": "3618",
    "BSTAR": "0.00000000000000",
    "MEAN_MOTION_DOT": "-0.00000065",
    "MEAN_MOTION_DDOT": "0.0000000000000",
    "SEMIMAJOR_AXIS": "26560.052",
    "PERIOD": "717.965",
    "APOAPSIS": "20321.442",
    "PERIAPSIS": "20042.391",
    "OBJECT_TYPE": "PAYLOAD",
    "RCS_SIZE": "LARGE",
    "COUNTRY_CODE": "US",
    "LAUNCH_DATE": "2020-06-30",
    "SITE": "AFETR",
    "DECAY_DATE": null,
    "FILE": "4735489",
    "GP_ID": "288111997",
    "TLE_LINE0": "0 NAVSTAR 79 (USA 304)",
    "TLE_LINE1": "1 45854U 20041A   25141.60225321 -.00000065  00000-0  00000+0 0  9998",
    "TLE_LINE2": "2 45854  56.3965  44.1771 0052532 199.2501 345.9054  2.00566958 36189"
}